vendor_id,name,email,phone,street_address,city,state,postal_code,country,tax_id,payment_terms,status,category,created_at
263e5c59-1a5c-4f33-8795-5002c67fddd3,washington,any1925@gmail.com,+1-713-768-0402,Collingwood,Ansonia,West Virginia,22768,BH,trembl,net_15,inactive,office_supplies,2025-11-07 18:26:39.670030
dd127418-3af5-4950-b6ab-415fa4ee4705,st,appeared1901@example.org,+1-445-428-7142,Pulaski,Arvada,Alaska,02657,PR,closely,net_60,pending_approval,office_supplies,2025-08-29 20:34:18.673088
ec1fbd2e-3a3c-4f7b-b826-ce203a8bf835,kansas,motors1847@yahoo.com,+1-679-332-0419,Waller,Lockport,Iowa,42871,JE,covered,net_45,pending_approval,consulting,2025-08-08 21:25:19.475575
c68683fe-e5bb-43c3-a2d8-f6661091b59d,guess,via1985@gmail.com,+1-312-022-0212,Meadowbrook,Garfield Heights,Georgia,27133,GT,asian,net_45,inactive,consulting,2025-12-02 05:28:26.507774
58b98bb4-23f4-42b0-8dd9-a227a981edbf,gardening,driving1981@outlook.com,+1-941-760-6524,Jack Micheline,Washington,Arizona,75935,TF,within,due_on_receipt,inactive,marketing,2025-04-11 19:09:20.903332
30efa8fb-d6c8-4a5c-8c86-644fe84f565c,displayed,von1966@live.com,+1-626-884-0957,Mount,Palmdale,Illinois,70220,DZ,same,due_on_receipt,inactive,travel,2025-12-28 11:25:08.797615
0da5efc0-1dc3-4b32-9ef5-8bfa6d7342b0,insert,substantial2034@yahoo.com,+1-369-175-7453,Church,Kyle,Louisiana,48136,PR,holdem,net_60,inactive,travel,2025-09-18 03:20:15.489131
8fbb0416-84c8-47d7-aaff-9b2212369630,vincent,tales1846@yandex.com,+1-541-116-5354,Brussels,Pleasant Grove,South Dakota,17139,NL,year,net_45,active,software,2025-05-15 07:09:06.053063
3c5a35cd-5396-4ce2-af5b-b5aa4fa12cbf,meetings,viewing1858@live.com,+13311449825,White,Edina,Utah,37088,IN,purchased,net_30,inactive,software,2025-07-28 19:26:15.907340
98ea105d-507c-4f53-ac2d-945a5a76d762,china,synopsis1952@yandex.com,+19471319995,Jefferson,Berea,Indiana,95724,UA,emails,due_on_receipt,pending_approval,office_supplies,2025-06-30 18:46:20.199055
b23da68f-5899-4278-a7ab-4ddb641f44b6,wash,amended1985@example.com,+1-775-089-0407,San Benito,Clearfield,Kentucky,17574,MS,mood,net_30,active,other,2025-08-17 14:31:56.323528
729d428d-57f8-4452-8b5c-d219af21fa2f,mapping,crest2081@yandex.com,+1-369-569-9767,Parkhurst,Jupiter,Iowa,91478,CF,relief,net_60,inactive,other,2025-01-03 12:32:29.252422
50a38ba0-4772-410b-90b5-3c943acc4bf5,article,patrol2064@protonmail.com,+1-817-200-5507,Eaton,Valparaiso,Utah,40395,MK,movie,due_on_receipt,pending_approval,consulting,2025-10-12 01:03:18.518934
22bfad76-c3e6-4156-b98a-2b8c5bf32aa6,lawn,gray1816@duck.com,+1-413-524-5785,Amatury,San Juan,Washington,18773,GD,stated,net_45,active,office_supplies,2025-05-18 00:54:06.451860
072653db-9cff-427b-be1d-75e3e897c385,church,since1897@yahoo.com,+1-679-634-8066,Rey,Conway,New Jersey,07797,LS,vital,net_45,active,travel,2025-05-24 11:48:25.383713
c8fbba3b-cde1-4824-8f77-96b79aa5fc5f,bar,processor1855@duck.com,+1-786-144-2294,Cleo Rand,Prichard,Maryland,85131,ZM,computing,net_30,inactive,software,2025-07-02 18:35:12.380133
46ad351f-493e-4ac9-87dd-12c4d8609700,necessaril,clinton2076@example.org,+1-940-981-4240,Valencia,Abilene,Rhode Island,30988,GG,played,due_on_receipt,active,travel,2025-02-13 16:28:48.576566
7c7b73a7-b020-409d-bb29-cad335e1b030,decision,access1935@protonmail.com,+1-727-499-5712,Hegal,Bellaire,Kansas,89040,SE,burn,net_15,active,consulting,2025-10-22 19:07:08.101377
5503bd4c-7fac-45e6-800d-35aca074ed45,teenage,union1960@duck.com,+1-203-558-1901,Van Keuren,Temple City,Florida,14528,JE,descripti,net_45,pending_approval,office_supplies,2025-06-26 10:35:23.791638
307b6eaa-937f-4c35-82a5-8ebab93e8969,nearly,hang1861@gmail.com,+17075645592,Gilbert,North Olmsted,Wisconsin,72396,KE,often,net_60,active,software,2025-04-20 16:25:32.042210
01b3ed1e-bae2-4125-9f7e-6a93e1fdfb43,highway,headquarters2002@outlook.com,+1-903-499-0650,Toland,Marysville,Delaware,20055,AE,moved,due_on_receipt,inactive,marketing,2025-01-05 22:21:51.496756
13c7d336-fe9b-4228-a61f-eb341a8a1a62,lives,freely1935@example.org,+12408831876,Brunswick,Shawnee,South Dakota,00035,FO,typical,net_60,inactive,travel,2025-03-20 16:08:20.976610
7dffa9d7-e834-45fb-969e-660931b743a7,cooking,adelaide1953@example.org,+1-959-287-1223,Sola,East Peoria,Ohio,19547,ST,published,net_30,active,travel,2025-03-13 19:47:53.313769
ada17dd4-ece5-4304-a05c-3069fe1c8c4e,degrees,suspected1928@live.com,+1-386-680-3191,Peter Yorke,Delaware,Connecticut,04447,PF,graph,net_60,active,software,2025-09-27 16:34:31.743167
02e7fba4-7f9c-4035-9099-1504f3f5bf03,placed,vessel2087@example.com,+1-812-089-5851,Chestnut,Bellwood,Montana,78115,BZ,encoding,net_60,inactive,software,2025-08-27 00:23:21.706537
c267c60b-3505-4ab1-8b2d-564ed7060684,eve,awards1986@yandex.com,+12082217846,Pulaski,Daytona Beach,Louisiana,48088,BL,reply,due_on_receipt,pending_approval,other,2025-07-19 09:50:57.760557
878dbed0-c0d3-4921-a985-f4908b6c98a0,av,harrison1890@yandex.com,+1-609-197-4672,Bernard,Rockledge,Ohio,89981,LB,instructi,net_15,active,office_supplies,2025-10-16 08:41:50.813864
ebbcb24e-d2e2-414d-9789-8d9077b36dba,zdnet,completely1819@yandex.com,+1-215-193-8826,Shoup,East Palo Alto,Montana,91039,SL,yesterday,due_on_receipt,inactive,software,2025-12-02 18:30:10.549697
86b9a7e9-3a19-4404-bc1a-d2dbf646f8d7,ave,minerals1835@protonmail.com,+14846395919,Saint Francis,Glendale,Nevada,67764,CR,courts,net_30,active,consulting,2025-03-27 21:15:02.600383
7a2c204c-d714-4663-a069-b6db222ad5a4,displayed,instructions1855@yandex.com,+14107365352,Laussat,Eastpointe,Arkansas,55705,LR,twelve,net_60,pending_approval,consulting,2025-04-01 14:20:26.158787
9c4fc980-a764-4c6e-8021-829864e292b5,syntax,acc2075@protonmail.com,+14754996619,Valletta,Converse,Arkansas,90156,EC,swiss,due_on_receipt,active,consulting,2025-12-07 13:32:49.641181
c1c12414-7f7d-420f-9044-3e9225caed52,fraud,madness1967@example.org,+1-785-516-3715,Pena,Cathedral City,Oregon,25645,LY,cincinnat,net_60,inactive,marketing,2025-12-24 01:45:08.543878
97372774-d6ff-47eb-9123-cae43fed014c,solution,values1955@protonmail.com,+1-405-456-4424,Lydia,Fort Smith,Indiana,63216,KN,procureme,net_45,pending_approval,marketing,2025-09-11 21:30:33.395129
e11c8145-ffb1-49b2-9933-4c0d95f44509,ny,certificates2063@yandex.com,+1-940-876-2102,Lydia,Suisun City,California,06505,LS,wooden,net_45,pending_approval,consulting,2025-03-15 17:21:34.371496
748401e5-69f4-4788-9140-40041afbb0c3,pdf,bytes2012@example.com,+17084260771,Jakey,Chesterfield,Minnesota,88318,PS,acrobat,net_15,pending_approval,other,2025-10-16 06:15:17.585196
55e5d570-a39f-4370-bf8f-cb4ecb16c4ce,shower,gateway2065@protonmail.com,+1-203-591-1455,Liberty,Plum,Tennessee,56591,TW,en,net_15,active,other,2025-04-10 09:45:13.723769
61e629e4-cf6a-49cc-8259-0934fa68998b,phentermin,ripe2018@outlook.com,+1-845-742-2675,Danton,Fountain Valley,Delaware,87122,GS,units,net_30,inactive,other,2025-06-16 11:35:59.979878
e8b79316-f2cb-4432-8485-285882f49392,carried,jackie1839@yahoo.com,+1-401-235-1267,Gardener,Sanford,South Dakota,85290,NI,brothers,net_15,active,office_supplies,2025-05-04 18:43:34.398138
7a5cf319-042b-4b5f-9d91-0cccdc2bbc30,both,quoted1969@gmail.com,+17320837908,Quesada,Westmont,Louisiana,03191,KG,meat,net_30,pending_approval,software,2025-06-25 04:18:02.301602
2224ec26-1fcb-4c56-911f-fd0e99461160,donation,smile1980@protonmail.com,+12168947562,Welsh,Sevierville,Nevada,51961,AR,normal,net_30,active,marketing,2025-06-30 14:41:16.783641
814c9dff-dbd5-4426-87ee-d6d7e56983ef,pump,islands2048@yahoo.com,+14403641416,Nelson,Paramus,Oklahoma,11387,TO,converter,net_60,pending_approval,consulting,2025-04-07 17:17:59.589318
2cc47676-ccf2-438d-8eeb-cd4d8f75d6f4,outline,potential1813@duck.com,+19541403237,Battery Safford,Jersey City,Indiana,66358,NC,dish,net_60,inactive,software,2025-03-04 19:47:37.250905
2d0ad25c-c58f-498b-85d9-5756f5b4b9f7,kerry,johnston1929@protonmail.com,+12620593676,Dublin,Escondido,Hawaii,98807,GQ,throughou,net_30,inactive,other,2025-01-22 16:14:40.244146
44394c96-7cd8-4916-8230-a11e49a6b06e,sporting,hormone1810@duck.com,+1-530-165-2671,Piper,Walker,Texas,88271,TV,berkeley,net_45,pending_approval,marketing,2025-02-14 10:45:30.105428
3aaa2f0c-57c1-4af5-93f4-b990d6c9a99e,holding,dude1855@gmail.com,+1-928-593-9158,Battery Chamberlin,Miami Beach,Iowa,19388,DM,dress,net_15,pending_approval,office_supplies,2025-01-31 17:59:10.426673
e76076e4-ba1e-4289-933c-a2d7f4e9a2a0,accepted,collections1861@yahoo.com,+14255606044,Ash,Rosemead,Illinois,32073,LT,rivers,net_45,pending_approval,consulting,2025-08-21 06:48:18.336768
14fe081d-9bdc-4028-99eb-6e36b9b5235d,oxygen,organized1878@protonmail.com,+1-213-792-8544,Parnassus,San Jacinto,Ohio,30825,FI,discounts,net_30,inactive,software,2025-11-02 02:41:36.243500
078a945a-ad62-4844-bac8-1b2e6a792dba,referral,memorabilia1844@live.com,+18322463081,Battery Blaney,Cambridge,Rhode Island,47365,ID,meaning,due_on_receipt,active,other,2025-03-14 05:59:58.038105
004af1db-94b2-4da6-8c04-e17c81b24188,hospitalit,occupation1974@yahoo.com,+15577209074,Florida,Flower Mound,Arizona,70957,RW,actors,net_30,inactive,office_supplies,2025-08-06 23:55:59.303528
eeddbd9b-cc6e-444c-b7fd-bf290d3ef7e4,awesome,slip2029@yahoo.com,+1-940-242-6353,Fredela,Kannapolis,Nevada,06338,QA,take,net_15,active,office_supplies,2025-01-10 18:38:06.973555
76bcc54a-8dc7-4f24-a839-983fc31ba317,thousand,mix2032@example.org,+1-561-211-1571,Leona,Muskegon,Maryland,63651,PA,martin,net_45,pending_approval,other,2025-05-15 20:34:33.517904
cac1eecf-f869-4108-9177-5351da52ce52,someone,specifications2068@yahoo.com,+1-715-823-3710,Nottingham,San Dimas,West Virginia,96350,GA,mount,due_on_receipt,inactive,marketing,2025-09-15 08:12:51.118118
ebf445eb-bfcf-4e1a-889d-0cd46520032e,char,views1864@duck.com,+1-732-854-4109,Germania,Lubbock,Pennsylvania,63465,SO,camp,net_15,inactive,other,2025-03-24 14:41:16.753504
479a6d36-57b3-4f3f-9d63-5f5670ec5054,epa,consent2005@example.com,+1-283-561-8902,Emerson,Roseburg,Colorado,26609,EC,themes,net_45,pending_approval,marketing,2025-01-24 10:50:18.595361
5703c5cc-9fb4-49f8-9b84-14781aad81ab,sec,rain2067@example.org,+18329254509,Loomis,El Paso,Illinois,10967,KM,street,net_45,pending_approval,consulting,2025-03-20 20:57:25.867161
18d203bf-3913-4250-bd1a-db84c8225ef0,themes,follows1935@gmail.com,+1-308-251-4640,Pollock,Racine,Oregon,16426,AE,council,net_60,inactive,software,2025-09-11 02:25:42.100018
01fcadf9-c807-4643-9c4b-a39e24972db2,details,ken1836@live.com,+1-627-766-9456,Cleveland,Tualatin,Nevada,28645,VE,bmw,due_on_receipt,active,marketing,2025-03-16 10:59:15.007161
fabc474b-fd90-4938-b29a-fbb3c10658aa,run,dense1830@live.com,+1-316-589-4434,Corwin,Mayfield Heights,Florida,86959,UM,talk,net_45,pending_approval,travel,2025-07-08 14:48:17.345637
21a0a6d9-629b-4d5b-b5e4-77ac6cb43638,hands,sugar2052@live.com,+1-614-587-6026,Rock,Pocatello,Washington,84941,TO,old,net_15,active,office_supplies,2025-10-24 18:00:16.685436
92acc2ae-cc6b-4b4c-ac63-5759b5f2dbd8,chile,intro1820@duck.com,+12625429489,Sergeant John V Young,Martinez,Kentucky,78274,EE,truth,due_on_receipt,pending_approval,software,2025-12-08 01:42:07.488002
948a700b-8ab9-4303-aa22-0189c17db537,study,nightlife1970@example.com,+1-908-836-2985,Judson,Manhattan,California,72380,CD,wet,net_45,pending_approval,software,2025-03-13 21:32:59.938599
266aa103-af99-45cf-bd71-c2dfcf42264d,shared,charles1929@example.com,+1-954-945-9654,Harding,La Porte,Vermont,12434,AZ,tab,net_30,inactive,consulting,2025-12-04 20:58:18.385397
1dcc283f-80aa-4bef-b69f-934526debe3a,aids,theories2055@yahoo.com,+1-475-259-4619,Gay,Whitehall,Nebraska,37908,MQ,recipient,net_60,inactive,office_supplies,2025-04-05 15:09:29.784056
5490b3e5-6dc2-4eba-991f-6cd02b0803f6,face,domains2082@yahoo.com,+17754281961,Oak Park,Millbrook,Alabama,92388,ME,tube,due_on_receipt,inactive,other,2025-07-23 17:58:30.794139
74d29d90-df30-452c-ada8-c4fcb7cca282,semi,tags2012@live.com,+18652539588,Waltham,Vista,Rhode Island,84243,PE,studies,net_60,active,marketing,2025-04-22 19:55:50.085847
92b1f2de-d9df-49cf-ad35-94a9a982e2b5,shared,quotes2059@live.com,+1-234-225-9415,Pennsylvania,South Jordan,Hawaii,89959,MU,district,net_45,inactive,travel,2025-09-23 11:04:58.591573
48d05507-4910-41ee-a6ec-3c8bf9b0d1e3,savings,mods2078@outlook.com,+19369892384,Woodacre,Round Lake Beach,Alaska,04812,GN,bowl,net_45,pending_approval,software,2025-01-27 17:57:32.211976
168ffc63-b261-414f-81ac-c1fbd091cc0d,summit,since1997@outlook.com,+17819193180,Gibson,Matthews,Massachusetts,38294,TG,store,net_30,inactive,marketing,2025-03-11 16:28:07.713341
4538ec8c-f8cd-4251-bd89-92e4f8bff6c9,currency,albuquerque2009@example.com,+1-513-493-6688,Candyland,Miami Beach,Alaska,70920,ZW,shoulder,net_60,inactive,other,2025-12-19 15:05:57.535167
19dc65a3-007a-4be3-a20b-0247e2522c8b,intelligen,pharmaceutical2049@example.org,+12240699740,Battery Wagner,Sun Prairie,Alaska,91011,PE,enter,net_60,pending_approval,software,2025-01-15 04:32:26.478987
b8ac46c3-277f-4e9f-ba05-500c001751d2,seasons,robot1953@gmail.com,+1-857-303-4246,Compton,Orlando,Indiana,42369,PY,dance,net_60,active,travel,2025-09-15 21:51:19.758414
5ee23721-eedd-48f7-aff7-26f81155b6d8,agreements,eight1840@yandex.com,+13166452646,Concord,Troy,Hawaii,91036,ZW,consideri,net_45,inactive,software,2025-07-09 00:47:13.606403
06d90fcd-2e1c-49b2-9342-b06de579ff8e,explorer,laden1880@example.com,+12749929643,Normandie,Lansing,Virginia,15826,GF,studio,net_60,pending_approval,software,2025-01-14 11:44:04.567451
9192d8aa-fa0f-444f-8d95-790e4613d04a,wants,speaking1921@protonmail.com,+14083260830,Cortes,Vicksburg,Oregon,73435,GS,drugs,due_on_receipt,inactive,marketing,2025-02-16 01:18:26.188724
e1ba1acf-3cf6-45c9-a86b-b143bd5ec42b,pan,students1917@duck.com,+1-270-666-7686,Ames,Wyoming,Nebraska,81968,PT,growing,net_15,active,consulting,2025-11-24 20:26:23.934631
589dafa9-f85c-48c9-8fce-4c838add6a70,williams,macro1817@duck.com,+1-864-027-1159,Dow,Madera,Idaho,79285,LA,mailing,net_45,pending_approval,marketing,2025-08-28 12:24:05.715894
2527afb2-3191-4abb-beec-86c265ba53e3,universe,sunglasses1884@example.org,+17029288407,Santa Clara,Madison,Washington,53292,KI,brother,net_60,active,office_supplies,2025-11-28 11:07:11.563356
e3db98a8-6a2d-4df5-a34e-24c69ab00c0b,way,preparation1987@yahoo.com,+19250546658,Highland,Suffolk,New Jersey,56343,LB,committed,net_45,pending_approval,office_supplies,2025-09-05 23:14:53.003642
b355c183-48f0-45ab-9647-e9070051c0f9,volunteer,complexity2041@outlook.com,+13168592089,Gillette,Jacksonville Beach,Kentucky,38720,YT,displays,net_45,inactive,other,2025-05-15 21:46:34.444730
e59e30ca-d6f1-40c5-b618-c4dbd0893af9,boxes,providence1871@live.com,+1-610-340-8146,Foerster,Bozeman,Kansas,74766,LC,ia,net_60,active,software,2025-04-08 14:22:09.289039
748021a4-c4f3-4f78-8693-db072c0051c0,rankings,reached2012@example.org,+15026926242,Rosenkranz,Van Buren,Alaska,02635,KY,estimates,due_on_receipt,active,other,2025-12-25 03:02:51.692267
9c8cda86-971b-45d2-b74f-c82e3b96e4eb,nose,clusters2078@outlook.com,+1-217-311-8466,West Point,Noblesville,Minnesota,47372,ER,lets,net_30,inactive,consulting,2025-10-25 00:15:13.070559
a3d1c243-8588-46ee-befe-13b5757b1c3c,getting,beginning1924@duck.com,+13852855827,Hansen,Cedar Falls,Washington,11571,DJ,mom,net_15,pending_approval,marketing,2025-10-02 14:38:43.737449
922580b4-0f8f-4cec-9636-db9eb206c70a,dictionary,jewellery1866@duck.com,+1-323-181-3750,Skyline,Gardena,Washington,57598,GD,promoting,net_15,active,software,2025-04-24 01:25:28.245722
e0bea78b-81c7-4c18-b6bf-89cd91b6adfb,absolute,benchmark2015@live.com,+1-910-747-5159,Haight,Junction City,Idaho,37100,GB,treatment,net_60,active,other,2025-01-05 16:18:14.855413
f16bf51e-5f1c-4270-8d8b-075e02f3fa99,makes,three2034@duck.com,+1-217-984-1748,Crespi,Redondo Beach,Wisconsin,48544,CO,purposes,net_30,inactive,other,2025-10-20 21:52:20.248411
5814aeab-e9c0-41b7-af30-9700f0083986,refine,dialogue1864@outlook.com,+19286539546,Berry,Flagstaff,New Mexico,10456,CD,pipeline,net_45,pending_approval,other,2025-03-22 16:14:26.315098
9715a933-d89c-46ac-85b8-3004b84d05cc,formats,conservative1910@gmail.com,+17138483733,Don Chee,Wauwatosa,Oregon,90254,MV,australia,net_45,inactive,marketing,2025-01-18 18:56:47.955858
9266f83d-d1b0-47fe-bfcf-84896f29ca4d,philips,pays2042@live.com,+1-937-800-7855,Guerrero,Torrington,North Dakota,39254,MO,extension,net_60,active,marketing,2025-11-22 13:35:31.049161
32b94782-9ae4-41b6-a446-0ea7bf6180dc,etc,wav1862@example.org,+12288949023,Bonnie Brae,Pleasant Hill,West Virginia,07620,EE,sr,due_on_receipt,active,marketing,2025-11-22 12:50:33.334217
f4560c25-f476-4a4f-8226-87852695c3cb,push,sync1879@gmail.com,+1-602-835-1224,Esmeralda,Oakdale,California,14640,GA,encourage,net_30,pending_approval,consulting,2025-07-05 09:24:11.791062
a901338d-5773-4ae6-bca5-1604e9edb12c,equation,voluntary1936@example.org,+1-806-279-3116,King,Seattle,New Jersey,02275,SS,harry,net_30,active,travel,2025-04-28 07:19:54.741948
66888ec5-b421-4cf0-a0d8-d0674c69080e,guilty,demonstration1846@gmail.com,+1-407-341-3395,Freelon,Longview,Delaware,56980,CI,elite,net_60,inactive,consulting,2025-08-30 01:35:26.436740
5c3c9172-af3c-476f-bd7d-4606e0c43d27,cameras,distributor1825@duck.com,+1-564-446-4253,Lockwood,Pensacola,West Virginia,89443,IO,hip,net_45,active,travel,2025-07-08 08:13:21.678120
c708ad03-0c40-4fbe-81fd-e2e5f72eb60d,unlimited,kept2069@gmail.com,+1-208-290-2977,Joost,Mount Vernon,Ohio,40043,ER,plenty,net_45,pending_approval,consulting,2025-08-28 11:05:34.759782
a80ebe3c-6312-4f65-ad75-f57419d22326,thongs,minds1803@live.com,+14791375880,Attridge,Broadview Heights,Iowa,98599,PF,occurred,net_60,active,marketing,2025-01-09 12:43:38.632209
0b0e7625-ec64-40bb-bf8c-9a4dd5a7079f,ending,resources2035@duck.com,+13255574103,Jessie,Palm Desert,Arizona,71542,MS,materials,due_on_receipt,inactive,travel,2025-02-07 18:46:42.585997
14abd537-ea1f-4e67-b7b8-0d2c58ca265f,ab,organisations2023@example.com,+1-585-440-8727,Richards,Raymore,New York,94431,CH,ecommerce,net_45,pending_approval,consulting,2025-08-07 10:19:58.016078
695df7a7-9af6-41c8-8f43-3e55d30b29d6,houses,tar2071@gmail.com,+1-414-937-8821,Marlin,Liberal,Vermont,46470,BH,moreover,net_60,inactive,travel,2025-04-24 03:47:48.502184
af1e3d3f-e3bf-40b9-9830-eca1ed3ba107,peak,employee1838@yahoo.com,+14344556869,Lunado,Fitchburg,Massachusetts,17880,TT,introduct,net_30,pending_approval,office_supplies,2025-12-20 22:13:25.959579
cf7aebfa-f2a8-4b89-a29b-f35edbd9cce4,import,marshall2025@outlook.com,+13084320534,Wabash,Melrose,Nebraska,05644,AW,covered,due_on_receipt,inactive,office_supplies,2025-09-11 09:24:29.559572
22c0518a-bba5-4f28-b70e-a251324b67f1,jacket,papua1839@duck.com,+15865359709,Gardener,Fredericksburg,Oklahoma,12840,NG,thin,net_60,active,travel,2025-05-09 11:32:56.521433
a6fbaca1-7f2f-4ac9-a5a4-9c6f6fc8c6a7,sec,meetings2056@yahoo.com,+1-843-488-9060,Hegal,Shelton,Hawaii,30428,BR,cod,net_60,pending_approval,marketing,2025-02-26 23:30:48.880521
fde3f59a-e2cc-4aae-a3f5-3d124e39c713,be,rev2067@example.com,+14753243576,San Leandro,Cary,Tennessee,84752,TG,lift,net_60,pending_approval,other,2025-04-12 10:26:02.589849
75eab9d1-0c5a-4c9a-a182-c5a765bfffb7,ourselves,mirror2085@gmail.com,+1-557-289-6106,Sierra,Michigan City,Kansas,41157,BY,fairly,net_30,inactive,software,2025-12-05 00:16:35.980165
7d9bc43c-4522-49ae-9bfe-c42d792c2ac6,side,mail1866@outlook.com,+1-508-563-1799,Brosnan,Garden Grove,Wyoming,74958,FR,replace,net_30,pending_approval,consulting,2025-05-05 06:21:14.398290
3b29c066-aa36-40b7-99fa-af87d8edfbe7,planned,cincinnati2060@example.org,+1-571-312-9421,Leese,Wilmette,Pennsylvania,56844,GQ,cuts,net_45,active,marketing,2025-08-18 20:43:21.269826
3bcb4985-f0b5-4405-b8be-ab667c32eedd,continenta,let2059@gmail.com,+1-610-686-5116,Wentworth,Taunton,Ohio,39892,ID,ahead,net_15,pending_approval,marketing,2025-12-21 23:31:29.176405
940a66d5-886a-40bb-9f6e-23a9d4a27e90,deputy,restricted2010@yandex.com,+1-984-967-7229,Harriet,Zanesville,Wyoming,43493,OM,jason,net_15,pending_approval,office_supplies,2025-03-05 23:34:31.192988
2e1d5146-fa7f-419b-8380-d01fc1639b79,stage,fallen2092@example.com,+17317754116,Double Rock,Morganton,Arizona,19318,BL,available,net_60,pending_approval,office_supplies,2025-09-02 02:52:42.050871
ef7451fc-f70f-4747-af23-ec7d121b90e0,held,belt1990@live.com,+12128272914,Turk Murphy,Maywood,Alabama,74614,FI,organisat,net_15,inactive,travel,2025-07-05 20:14:04.741521
830bdbcf-3f43-4652-ba26-f8c9a5aa8ce5,constantly,samples1813@yahoo.com,+1-347-333-0230,Mclaren,Prairie Village,Vermont,30365,ZM,previousl,net_45,pending_approval,other,2025-01-07 16:29:23.063386
0cdc94c9-a39e-469d-b182-4583336fe0c7,korea,detect1819@outlook.com,+18656174002,Lynch,Provo,Virginia,84562,PK,depending,net_60,pending_approval,software,2025-11-16 00:00:34.578440
c0d30025-6dea-4caa-8df6-85f5b2479fd7,pension,varies2016@yandex.com,+1-209-212-6608,La Ferrera,Elizabethtown,West Virginia,09771,CI,account,net_45,pending_approval,consulting,2025-01-01 16:46:17.561762
4e328432-1992-48b0-af15-1661737890be,repair,trip2063@example.com,+1-317-203-5165,Leland,Arcata,Arizona,30342,IR,rio,net_60,inactive,other,2025-01-17 22:43:27.845328
c2e7c988-253a-43a8-a09d-829c61cfeb84,born,broker2078@outlook.com,+16125346920,Worcester,San Luis,Idaho,10862,VC,homepage,net_60,pending_approval,software,2025-02-04 16:09:15.201255
7de8bc79-33bb-4229-adf8-1d6b8c00df50,comfort,nelson1853@gmail.com,+1-985-058-1746,Denslowe,Elyria,New Jersey,64684,GA,violence,due_on_receipt,active,office_supplies,2025-06-09 12:05:23.425750
4a78bf7e-f4ce-4c93-9e1c-05459e9cac90,linear,dated2034@yandex.com,+1-419-278-3338,Ward,Conway,California,43564,ER,approach,net_45,active,other,2025-10-08 22:14:19.717269
8aa0fe4d-6873-4ffa-b067-81e17956164c,detail,idol1897@example.com,+19528062744,Salinas,Woodland,Maryland,13425,MQ,sri,net_15,inactive,software,2025-11-28 20:48:02.098042
b55ab0ba-c5c9-4154-ba35-77fbc86c078a,installing,platinum1895@example.com,+16083720449,Latona,Schertz,Maine,08308,SK,sell,net_15,inactive,office_supplies,2025-07-13 17:30:03.667678
18d84ba4-bee4-42d8-9ef6-58711a2743e4,pic,usc1964@yandex.com,+1-803-324-7144,Benton,Plainfield,West Virginia,49276,GW,work,net_45,active,software,2025-12-06 02:31:54.454987
3d035872-8903-4bed-bbd8-fa69c213ff9f,need,reservation1829@outlook.com,+19403869167,Gorgas,Redding,Illinois,66768,NF,variation,net_45,active,travel,2025-10-28 03:57:33.963800
2e99e4b6-898f-4c94-bdbe-7910b23ad39e,tell,courtesy1920@duck.com,+16313566937,Chattanooga,Pullman,Tennessee,07031,VA,object,net_45,inactive,marketing,2025-04-07 22:56:36.498598
2b2f0552-cdcd-4a7c-adde-50a5d29675d7,purpose,tracked2003@yandex.com,+1-509-217-4352,Laskie,Highland,West Virginia,42783,LR,le,net_30,active,consulting,2025-01-30 02:43:59.293992
b415e6ef-eeed-466f-8d7c-31fab9856a97,smoking,rouge1946@live.com,+1-724-184-8406,Jordan,Wheat Ridge,Hawaii,28487,GR,material,net_60,pending_approval,other,2025-03-30 10:01:13.615551
00f9c6fc-7232-4092-9a0a-62dd828dffa8,than,nicholas2081@outlook.com,+1-903-879-6751,Congdon,Mesa,California,19879,TK,regional,net_30,active,office_supplies,2025-12-27 12:59:04.313814
73986792-ea55-43c4-ae31-3ae2ec5c03f6,japan,defects2052@yahoo.com,+18025385603,Whitecliff,Kearny,Colorado,70546,PF,directly,net_15,pending_approval,marketing,2025-10-08 18:53:54.408060
c6427edc-a6a1-4ec2-982e-119c6403e4cf,designers,toilet2009@example.com,+1-970-964-6387,Isis,Parkersburg,Missouri,89120,UA,pace,due_on_receipt,pending_approval,office_supplies,2025-07-25 23:08:50.722794
d9ceeb66-9b3a-4031-9f91-ecaa4befb31d,reviewer,critics2057@yandex.com,+1-219-531-9295,Wilson,Highland Village,South Carolina,20893,IQ,literacy,net_60,pending_approval,office_supplies,2025-09-24 11:03:06.458320
f6a505d8-94d7-4c32-a3f5-05a97f7052c7,optimizati,caribbean1900@live.com,+1-970-660-6551,Conservatory Access,Citrus Heights,Arizona,93408,BY,download,net_30,inactive,other,2025-02-11 19:49:39.624540
f789c853-e23c-450e-81e2-62ce4732a3f5,bag,week1814@outlook.com,+1-208-972-2560,Ord,Massillon,Mississippi,67947,CF,easy,net_45,inactive,travel,2025-06-01 20:17:50.472436
bfceedb2-4c6b-486e-9c0a-1debe4222fc1,domestic,larry2047@example.org,+19402004426,Pond,Rocky River,Connecticut,86926,DJ,examine,net_15,inactive,travel,2025-04-12 17:24:27.194760
2787912a-825f-49a5-83e8-ae6f8bb3ac51,managers,mean2004@outlook.com,+12395121410,Rockridge,Marana,Kansas,80659,GY,catch,due_on_receipt,active,software,2025-02-25 19:18:51.258421
2d0dbf21-469c-479b-9f5a-ae44a2873eb7,dd,rate1881@protonmail.com,+13697119484,Borica,Largo,Louisiana,11846,NO,presentat,net_60,inactive,consulting,2025-02-09 04:24:45.821968
8f7f56c1-434c-405f-af18-b50d16ff9a18,profits,postal2034@gmail.com,+1-407-502-5862,Arkansas,Bartow,Michigan,21507,CZ,atlantic,net_45,pending_approval,marketing,2025-12-13 10:23:06.095966
471e566f-c8ad-49f4-9321-826c99380769,hard,competitors1868@duck.com,+13477345150,Godeus,Weatherford,Iowa,31908,CC,marc,net_45,inactive,travel,2025-05-15 11:48:17.107197
00f9abac-cdb4-4486-ab6c-6de8f6e1d004,hence,salem1943@example.org,+1-920-937-3971,Cuesta,North Platte,Kentucky,71813,SM,corner,net_30,inactive,marketing,2025-02-06 13:28:35.581687
d212a02a-30a4-4a4c-b6ed-cafd998a11ab,him,prix1820@example.org,+1-484-134-4653,Hayward,Passaic,Massachusetts,02141,BA,threshold,net_15,active,marketing,2025-02-01 02:22:35.097584
9e31824f-bf2c-4c66-98a0-4f6472409775,moves,drivers1953@outlook.com,+16128572836,Seward,Marshall,Wyoming,35426,RO,prev,due_on_receipt,inactive,consulting,2025-07-01 09:26:24.817018
f69da832-6e02-4eee-8577-0cd76f7f847e,stewart,lucky2042@protonmail.com,+17075751668,Transbay Hump,Greenville,New Jersey,60984,BN,review,net_45,pending_approval,travel,2025-12-29 17:57:15.599743
8ccdd52f-51ac-4041-9253-1ad3945ad94e,gave,high2093@yandex.com,+1-901-031-6479,Spencer,Shoreline,New Hampshire,00602,NI,accounts,net_15,pending_approval,marketing,2025-11-13 05:08:17.315759
9c804df0-42d8-4f35-af6d-1cecaa8cef01,fire,decorative1906@duck.com,+15175319337,Waterloo,Shoreline,Massachusetts,35254,SO,represent,net_45,active,consulting,2025-08-05 02:10:27.289366
8d68d94f-483e-4826-9276-227687937ce7,station,specification1926@live.com,+18152997764,Compton,Youngstown,Tennessee,67724,DO,versions,net_15,pending_approval,other,2025-05-16 02:23:16.990088
5374b892-1fcf-4955-900d-738b04f88d6c,highlights,nodes1940@example.com,+1-559-558-3371,Polaris,Hopkinsville,New Jersey,37332,ZM,relevant,net_60,inactive,office_supplies,2025-12-21 15:38:39.205047
2342c873-f7c8-4a33-a697-1bbfec921d67,mask,laden1977@duck.com,+1-619-728-2521,Dove,Sandy Springs,New Mexico,08007,SV,nobody,due_on_receipt,inactive,office_supplies,2025-02-05 09:00:25.348354
34c2f941-1cf6-4cdd-9eb5-51ee83985d65,cruises,highlight2071@yahoo.com,+1-503-047-1705,Cuesta,Ogden,Arkansas,55313,PA,crop,net_30,pending_approval,travel,2025-06-15 10:27:52.863539
b4f18f92-7ce8-4017-abf9-99516e826467,id,prospective2044@yandex.com,+1-209-369-0557,Quartz,South Bend,Arkansas,96352,NZ,algorithm,net_30,pending_approval,software,2025-05-11 19:44:12.502278
e3b5760e-2bfd-4150-928f-cef971018d8d,false,ending1890@duck.com,+12147178202,Sickles,El Monte,Connecticut,35122,JM,poetry,net_15,inactive,marketing,2025-03-31 12:20:18.770571
b8859abb-826f-4991-9b5d-e2203a9bafae,hair,morgan2032@gmail.com,+14348152837,Wills,Terrell,South Carolina,66098,FJ,clinic,net_15,pending_approval,travel,2025-10-26 07:20:24.293916
2460bcd2-d632-494f-92a1-8dfb9ef363d3,involving,excluding1972@live.com,+18586166443,Avenue H,Daphne,Louisiana,73308,MN,campaign,net_30,active,travel,2025-06-04 18:12:37.572133
c9f23b45-699e-47a7-87f4-b3aa6db34d2e,only,claims1871@protonmail.com,+19099034235,Patten,Bethlehem,Georgia,79053,KM,alarm,net_45,pending_approval,marketing,2025-11-25 17:01:46.484045
3d881ee1-3be5-4f4a-a6b1-24ad9e517c02,gr,informational1920@duck.com,+1-260-416-9876,Medical Center,Converse,Mississippi,33958,CF,microsoft,net_30,active,office_supplies,2025-08-26 09:53:44.072518
001cc960-811a-41b3-aace-249f6d271ebe,alarm,palace1912@live.com,+15171764545,Dwight,Sunnyvale,South Carolina,00446,IS,paperback,due_on_receipt,inactive,consulting,2025-11-16 04:40:19.253777
fea09676-93f5-4efd-b7ce-183cd38ea00e,cartoon,horror2069@yahoo.com,+14077050555,Josepha,East Ridge,Wisconsin,53165,MA,intereste,due_on_receipt,inactive,office_supplies,2025-11-05 22:27:50.395303
794126e1-ce77-457c-860c-ee929dbc5e97,approach,during2066@yandex.com,+1-754-674-8401,Loma Vista,Baldwin Park,Iowa,35032,BZ,gardening,net_45,inactive,travel,2025-08-20 15:37:25.560324
a83c8387-db08-46c1-948c-0c6dbe936298,county,screenshot1829@protonmail.com,+1-302-738-7503,Hutchins,Goldsboro,Massachusetts,14415,DO,expert,net_45,active,marketing,2025-09-02 11:44:57.851755
d878b104-37ab-4db6-b175-5929301b5a2f,responsibi,undergraduate1835@gmail.com,+1-443-211-6793,Stoneybrook,Omaha,Texas,80800,VG,gardens,net_15,active,office_supplies,2025-02-25 07:42:42.372253
3a69f38c-bef3-4470-94bb-891158c652c3,report,rural1992@protonmail.com,+14121819319,Calgary,Harrison,Oregon,44624,GN,society,net_60,pending_approval,travel,2025-11-20 01:36:41.710380
a1a87bf3-bab4-4c58-8969-31f8598b64fc,developmen,ann2037@duck.com,+12703241187,English,Wake Forest,South Carolina,46341,JP,basically,net_15,inactive,software,2025-06-26 13:06:00.103396
f345fc77-c705-492d-bba9-e260ca5e325e,affiliates,reaching1923@duck.com,+1-423-105-7074,Pasadena,New York,Colorado,33331,LT,manage,net_45,pending_approval,software,2025-04-17 23:33:35.608717
6782d2cc-54a1-47b9-bac9-e31018e91246,zus,two1828@yahoo.com,+19019295578,Commonwealth,Nixa,North Carolina,17396,CC,find,net_60,inactive,other,2025-08-12 12:29:49.712565
5e9821c6-db88-4015-8854-771d545dc23a,pat,livecam2066@yahoo.com,+15343098964,Havens,Burlington,Georgia,21170,ZA,russian,net_45,pending_approval,marketing,2025-06-01 15:06:18.436181
32c058f2-0f7b-44e8-b255-cdb9c4cf5d84,paul,basically1995@example.com,+15056421522,Stanton,Menlo Park,Wisconsin,55686,NE,republic,net_45,active,other,2025-02-27 23:09:22.327040
dd37bd7e-72ad-44d7-95b7-2fb0fc9810d1,var,separation2087@yandex.com,+19155122698,Mammon,Pueblo,Massachusetts,10432,AX,continued,net_30,inactive,software,2025-08-26 06:33:30.365219
e1387f27-83b0-42df-9fe9-1ebd90950698,africa,tried1826@gmail.com,+19806681775,Mission,Muskogee,California,34080,TR,chemical,due_on_receipt,pending_approval,travel,2025-02-15 23:44:28.334400
f47dd000-e0b5-4415-8c5d-18f0261e005e,cambridge,forecast1955@example.com,+1-531-991-9426,Castle Manor,Pontiac,Rhode Island,54578,KI,pills,due_on_receipt,active,other,2025-05-02 22:07:01.890429
185f44f3-e96e-42ee-8eca-9e5485f1467e,michigan,preferences2082@yahoo.com,+1-314-353-2540,Fitch,Henderson,Rhode Island,41018,GS,crime,net_15,pending_approval,marketing,2025-11-04 21:51:10.975094
6754abda-2c55-4032-a4e8-c515a12f2daa,printing,mechanism1989@example.com,+15340870557,Carl,Murray,Tennessee,12445,CG,rfc,net_45,pending_approval,marketing,2025-09-06 17:10:21.587044
dd59288b-26fc-4439-a3c4-c990b5a4a975,clubs,disciplines1968@live.com,+14235259374,Museum,Key West,Maine,37606,GQ,nothing,net_15,active,software,2025-08-08 12:40:11.195440
e0a6a3f0-3f2a-4ace-8716-81fc79aae361,reliable,selective1980@example.com,+1-281-749-5600,Bridgeview,Hinesville,Connecticut,53289,MX,brochure,net_15,inactive,marketing,2025-07-01 23:39:56.206909
b573a440-170b-42e5-9a9a-f6740274f08a,sigma,bean2011@gmail.com,+1-772-012-4069,Dorantes,Holland,Colorado,51396,IL,wake,net_15,active,office_supplies,2025-10-14 12:00:45.225230
c54949f7-efd4-4673-843b-d1f7501a71ea,bowl,stability1803@example.com,+15304075256,Crossover,Pensacola,Virginia,93378,PE,airline,due_on_receipt,active,marketing,2025-05-25 22:51:50.065602
d1c39587-130f-4cba-9c74-170090f6ef66,essays,episode1849@protonmail.com,+1-731-262-3709,Turquoise,Brookfield,Tennessee,65039,GS,plot,net_60,inactive,other,2025-09-06 11:20:12.479776
6e7bece7-b39e-43c6-833e-89d0aee1631e,violent,western1915@example.com,+1-614-687-0350,Sonora,Denton,Iowa,91275,MF,great,due_on_receipt,inactive,consulting,2025-05-22 15:33:40.328628
4b751ee6-9940-40c7-866e-58ff2927e029,psychology,eleven2055@duck.com,+18285805028,Turquoise,Atwater,Texas,37131,TF,babes,net_30,inactive,other,2025-10-13 18:07:22.369082
a489e64f-4caf-4eb0-b2a5-68870baa0852,practices,invitations1838@example.com,+17725093957,Elgin,South Bend,New Hampshire,03796,SC,options,net_15,inactive,consulting,2025-10-06 21:45:51.311893
23f301b1-592c-401d-9168-bb03fe9d4a29,blood,cannon1883@protonmail.com,+19358383719,Ross,Enid,Ohio,29791,PG,robinson,net_60,inactive,software,2025-11-05 10:07:15.320214
49112f0e-a0ce-4f31-975a-6f9534c38bd9,stamps,suggestions1827@gmail.com,+12192066593,Zoe,Manitowoc,New Jersey,77541,CX,nh,net_45,active,marketing,2025-03-12 22:09:32.407333
26f23338-0cde-4e9f-8f4d-497c4ebb84d4,but,salmon1916@live.com,+18049466067,De Montfort,Ferguson,Arkansas,68518,TL,wire,net_60,active,travel,2025-10-05 18:24:27.194776
7021c4d6-fa7d-462c-877e-032ec8efa7cd,safe,cats1878@gmail.com,+1-913-731-0332,Crags,Glen Ellyn,Colorado,72914,YT,figure,net_15,pending_approval,travel,2025-11-18 22:58:41.975904
bc1a6020-f1a0-48f3-b4ae-a55301d134f9,hosting,characteristics2020@yandex.com,+13095403053,Graymalkin,West Allis,New Hampshire,89433,ID,frequency,due_on_receipt,pending_approval,travel,2025-09-06 15:18:08.196187
1a8bbb6f-fd44-4e6d-bcde-3db3e769a916,leaf,afternoon2011@protonmail.com,+1-214-759-2561,Candlewood,Kingston,Iowa,09867,BZ,featuring,net_15,inactive,travel,2025-08-20 01:55:22.998078
af3f01d0-7284-4c84-bdb2-c378b31a90f8,staff,lists2052@live.com,+1-681-122-7397,Battery Blaney,Glenview,New Mexico,61740,BF,sin,net_30,active,marketing,2025-08-05 06:52:24.588861
d76ff345-d4db-4c49-adbb-606618871aef,books,fashion1854@example.com,+1-847-038-3844,Arch,Fontana,Indiana,85751,GA,vital,net_15,pending_approval,office_supplies,2025-07-22 15:26:45.880690
e7ecb48d-acac-404b-941e-9981e5727f36,overnight,lip1902@yandex.com,+13301337697,Hays,Greensboro,Delaware,04741,UZ,slot,due_on_receipt,active,software,2025-08-06 02:36:01.834541
3923e423-3ae9-417e-b654-d7b9fec70dee,programs,penny2001@outlook.com,+1-910-919-1707,Stoneman,Perth Amboy,Ohio,05214,NA,icon,net_45,active,office_supplies,2025-05-02 08:14:34.302692
6a6c32b1-d751-41a9-909e-d847be73bee0,rear,retain1835@yahoo.com,+15071321434,Missouri,Evansville,Oregon,46090,MA,walking,due_on_receipt,active,software,2025-08-19 23:49:49.519373
1bd5e1ce-c918-4737-b039-96ea5cd4965b,does,prior2059@example.com,+17720978591,Walkway,Muskogee,North Carolina,53469,ER,sets,due_on_receipt,active,consulting,2025-10-04 08:49:34.863274
114b4575-8d6a-4a8d-afe2-dde8fc2f5254,makers,occupied1822@yahoo.com,+18289402555,Anza,Jeffersonville,California,37677,GQ,judicial,net_30,active,travel,2025-09-27 01:48:46.462806
5f71049d-8072-40a3-97f0-37aa4b9a2eb6,icons,rope2000@yahoo.com,+17126194290,Daggett,Bakersfield,Minnesota,58174,PN,rc,net_30,pending_approval,software,2025-07-04 23:53:41.787842
9adcaacb-64a9-4322-a18c-ec93d530eeb4,dna,nintendo1975@yandex.com,+1-716-530-7400,Sheldon,Ramsey,Idaho,80742,AT,stars,net_45,active,office_supplies,2025-05-28 01:28:16.365509
6e21f339-3403-4584-92ec-58dfb563115d,smooth,animation1855@gmail.com,+1-585-553-4476,Friendship,Avon,Massachusetts,95952,SC,became,due_on_receipt,inactive,office_supplies,2025-08-28 03:49:51.248455
1a900138-0b5a-4ffc-b81d-326bb0ed87e7,table,replica1814@yandex.com,+18085372780,Foerster,Glendale Heights,Minnesota,80627,JP,dependent,net_15,pending_approval,software,2025-12-19 22:22:55.745279
7c1624d3-f995-41a5-88a8-bfbc21060d15,introduced,true1987@gmail.com,+1-334-428-5656,Parque,Starkville,New Hampshire,83944,VI,numbers,net_30,active,travel,2025-03-20 04:50:13.853047
88582d32-e437-4d15-8428-e6251336ca57,gardening,nightlife2034@gmail.com,+1-520-956-3213,Topeka,Fredericksburg,Colorado,70685,GM,alex,net_30,pending_approval,travel,2025-01-19 11:34:17.625850
1e592914-6d14-4a7f-8895-be0fcba99b13,standing,tasks2014@yandex.com,+16613166695,Clara,Bolingbrook,Massachusetts,63646,GU,compatibl,net_15,active,travel,2025-06-23 09:18:36.280329
9a7334e7-17b3-45b6-94c1-dc037c60aaa4,couples,lanes1895@example.com,+18326894135,Rosella,Avon Lake,Washington,83929,YT,secure,net_15,active,other,2025-03-31 13:58:03.290794
0a85d2b6-9d9e-448c-8660-9f1aaef09e48,fax,pst2012@example.com,+12131572022,Blanken,Bixby,Texas,63869,CA,symbols,net_60,pending_approval,software,2025-12-28 04:15:09.745951
ea202ff1-f475-4783-a1ea-0377e21cd829,probabilit,whenever2081@example.com,+1-701-525-9577,Rincon,Ashwaubenon,Florida,07335,MX,drawn,net_15,inactive,marketing,2025-04-25 21:25:31.149077
d5233735-89aa-4e51-9586-755dd53f523f,actually,usual2017@example.com,+1-252-294-3849,Dr Carlton B Goodlett,San Gabriel,New Hampshire,93755,IM,valentine,net_45,pending_approval,consulting,2025-11-14 12:28:04.664406
233a4ac0-d541-4238-950b-4a991b4ed589,bearing,formats2019@yahoo.com,+12021220325,Lulu,Rochester Hills,Louisiana,21743,MM,puts,net_15,inactive,consulting,2025-07-17 23:17:44.981819
6b9479df-a070-47d6-b7bc-5b7e459d4c89,kerry,lean2093@outlook.com,+19179609799,Cook,Fort Wayne,Wyoming,24929,LC,residenti,net_30,pending_approval,software,2025-08-31 15:20:37.002593
56ed6edf-311c-4684-a0ba-ee68955f0539,practices,czech1874@yandex.com,+1-252-764-5244,Fuente,Centennial,Florida,84840,PH,part,due_on_receipt,inactive,marketing,2025-12-15 20:42:44.375623
4a682fbf-84dc-40fc-a309-71d968b44278,killing,produced1942@gmail.com,+12569307774,Madera,Sachse,Minnesota,75221,PT,screens,net_15,active,marketing,2025-09-13 06:27:52.222142
644466dd-4616-4198-963b-bd850412c4cd,bet,box2003@outlook.com,+17548432518,Esquina,Venice,Mississippi,51217,AM,cuba,net_60,inactive,other,2025-05-11 09:21:35.606007
e8383a95-8c81-4a07-862a-761c96299937,preferred,beam1850@outlook.com,+1-278-184-0926,Moss,Ocala,Oregon,38560,GH,entire,net_15,inactive,other,2025-10-28 15:50:21.937589
3694a704-4ca9-49a2-b0e9-4b9d662d479a,mother,lived1940@yandex.com,+18022391336,Paris,Skokie,Washington,44451,GL,jacket,net_60,active,software,2025-01-04 20:50:53.481906
8db2fe1d-a445-4b2a-8e6c-aea0b15ad272,louisiana,religion1848@yahoo.com,+1-927-412-6068,Burns,Martinez,New Jersey,63876,CN,honda,net_45,pending_approval,office_supplies,2025-02-28 05:28:29.000708
887c3062-4c6d-4c59-90e5-1073f3a42228,relation,cuts1836@protonmail.com,+14130813238,Crossover,Lynnwood,North Carolina,90111,GM,extra,net_15,active,travel,2025-04-23 04:56:41.316528
5074bf68-e5ee-43d7-8a81-17c71bb4eb60,processes,depend2071@yandex.com,+15206476146,Grove,Hurst,North Dakota,88265,BV,dollar,due_on_receipt,pending_approval,consulting,2025-05-03 20:23:16.086424
0e119fd0-7381-48f4-8d84-30c18da7e4f6,developed,changing1871@yahoo.com,+16057347262,Lick,Ponca City,Ohio,06551,NE,businesse,due_on_receipt,pending_approval,travel,2025-11-29 20:10:03.415594
58e20e57-b0af-4cd0-a704-7c1f8accc9dc,consider,appliance1905@live.com,+15675720894,Mcdonald,Winter Park,Oregon,08097,FI,bunch,net_60,pending_approval,consulting,2025-12-23 07:27:41.095629
82f56f20-40c9-4736-a1c5-73b7d701fe36,magnetic,henry1836@gmail.com,+1-752-991-8536,Giants,Terre Haute,Oregon,46462,ZM,restore,net_45,inactive,consulting,2025-01-07 15:04:08.622518
8f6e8670-b9c0-495c-b00f-45e4e9bf5d28,comprehens,cabin2100@example.com,+1-907-200-7565,Levant,Mishawaka,Kansas,86200,KE,creating,due_on_receipt,inactive,software,2025-09-22 14:00:00.729386
b15fde53-56c0-406b-8af2-0424d7a3e7a0,jump,recruiting1842@protonmail.com,+1-574-009-9135,Poplar,Mission Viejo,New Jersey,26377,TO,quotes,net_15,pending_approval,other,2025-02-28 13:44:08.500905
62534d47-5aca-4cfc-9e1d-3d2d4a99d6f6,wheel,maiden1922@gmail.com,+1-309-044-6377,Merritt,Las Cruces,Florida,75121,KI,locate,due_on_receipt,pending_approval,office_supplies,2025-04-13 02:46:51.107402
1f6d0280-0a43-416c-a314-05d70482cc69,ea,aged1805@gmail.com,+14789577117,Holland,Claremore,Connecticut,09849,UY,blind,net_60,inactive,office_supplies,2025-06-12 09:08:24.811032
b35b09de-12bc-43b2-b452-92a7f9c42b9f,constant,continually1971@live.com,+1-564-529-6450,Eastwood,Webster Groves,Massachusetts,97119,KR,dance,net_60,inactive,marketing,2025-11-22 04:04:33.590653
f0a027ab-38e5-4064-997a-6ad66b707a4e,commons,palestinian1930@yandex.com,+18056170800,Stillman,Hamilton,New York,09592,GW,administr,net_60,inactive,other,2025-10-21 05:28:22.757524
e79320ce-f562-492d-b5b3-56cdc40de1a4,mac,pickup1891@outlook.com,+18048762293,Bennington,Bartow,Maine,48645,TK,down,net_15,inactive,marketing,2025-11-24 04:58:26.646002
cbf253d1-48ba-4bcd-b913-421378b3adcf,weeks,workforce1861@gmail.com,+1-718-189-9042,Clipper Cove,Lumberton,Florida,87734,MO,mechanica,net_45,pending_approval,travel,2025-04-03 03:08:48.129139
c40d6f4f-81cf-4dc0-9023-41b933481633,primary,military2083@live.com,+1-730-327-7239,Windsor,Desert Hot Springs,Mississippi,50572,NE,cambridge,net_45,active,other,2025-06-14 10:50:08.259822
a55c5e37-c69e-4a94-85ed-673e1e22c5fd,substantia,utc1877@yahoo.com,+16790566037,Coral,Charleston,Connecticut,37397,CV,killing,net_60,active,software,2025-11-03 07:35:38.629153
82939fef-e74c-44f4-9f34-11d556ee8aaa,sunglasses,lucia1905@protonmail.com,+1-984-499-1202,Teddy,Lawndale,North Carolina,00785,CD,mode,net_15,active,marketing,2025-12-01 21:56:19.215425
45d1949f-6fc6-429b-b15e-09b13201b79d,is,quantitative2034@example.org,+19060180549,Thrift,Citrus Heights,Massachusetts,93368,MU,immediate,net_15,pending_approval,other,2025-12-13 09:41:03.821875
ad5f75c1-ee85-4f20-b9de-b034fee8a1ff,comply,lawyers1961@yahoo.com,+19073202751,Mcallister,Muskegon,North Carolina,57283,PF,apr,net_45,active,consulting,2025-08-13 03:15:31.669077
cac1e341-ac10-4199-8412-a880b2b24aa7,unusual,safety1960@yandex.com,+1-817-592-3211,Coldspring,Lisle,Pennsylvania,38865,FI,jewellery,net_15,pending_approval,consulting,2025-09-29 00:23:59.331845
51457e04-4eec-4720-83bf-a3b28975a620,simulation,authors1967@live.com,+1-937-793-0281,Hale,South Burlington,Arkansas,51668,CC,guard,due_on_receipt,inactive,other,2025-07-28 18:26:23.572896
818d05ff-bf03-4fc5-a5c0-e73b9b40b5f2,avoid,sas2081@protonmail.com,+1-720-481-0891,Hester,Arroyo Grande,Oregon,91031,PL,organic,net_15,inactive,travel,2025-08-31 02:01:37.070813
84a7fbef-807c-42e5-8580-d24daaa6c234,arena,passport2098@protonmail.com,+1-513-009-4198,Garfield,Lewiston,North Carolina,79870,BZ,charges,net_60,pending_approval,software,2025-05-07 01:59:03.994763
567a1ef9-687b-43ce-9fa8-21224f550e11,mg,coral2036@outlook.com,+1-575-947-4343,Tonquin,Durant,Oklahoma,36531,VC,enjoy,net_45,pending_approval,travel,2025-09-10 20:45:32.804373
43321f09-d422-45af-aeef-67d65637cd93,xhtml,jail2028@yandex.com,+1-425-666-4840,Vandewater,Hudson,Ohio,37766,MZ,building,net_45,active,consulting,2025-07-23 12:05:40.562628
5f11e5a5-db59-4c20-a90e-3be785c50a52,returning,decent1902@protonmail.com,+1-989-687-9735,Skyline,Denton,Kansas,22997,PS,not,due_on_receipt,active,office_supplies,2025-05-03 09:05:32.965659
0f3e9a5f-c697-4d30-aeeb-c39658132afc,sci,necklace2057@example.com,+19312050828,Gellert,Santa Cruz,Virginia,44597,GA,cyprus,net_60,active,software,2025-03-18 10:25:37.665105
3eed6cc7-eea2-4ec2-b82c-71108a3e9dcb,liver,tracked2099@example.com,+1-865-162-8909,Cosmo,Palatine,Utah,58337,CC,infant,net_45,pending_approval,travel,2025-05-23 13:46:54.250229
ab751efb-6efe-4d21-b6a8-987fbaab1212,impossible,yields1981@yahoo.com,+1-213-237-3573,Lake Merced Hill,Avon Lake,Maine,90967,DE,strategie,net_15,inactive,consulting,2025-04-03 13:07:29.642039
ee354a26-886a-4f83-9669-b530692b5828,worldwide,webshots2052@yandex.com,+1-310-402-2509,Gallagher,Westlake,Ohio,25217,EE,entered,net_30,inactive,consulting,2025-05-22 23:42:47.184178
ad2d648b-190c-4437-8e26-18fad978722b,oldest,cuisine1890@yahoo.com,+1-319-059-7889,Heyman,Bartow,Texas,92213,KW,nt,due_on_receipt,pending_approval,other,2025-01-23 04:44:00.171790
b190b03f-c1b4-4cf9-9008-3a4345d0fcdf,reducing,praise1972@outlook.com,+16571197961,Chula,San Leandro,Wyoming,19916,TZ,vacations,due_on_receipt,active,consulting,2025-06-17 16:50:52.755777
13d28aae-b6d6-42e3-a468-f09b2384631a,correct,offset1889@example.org,+1-316-721-0758,Severn,Milledgeville,Tennessee,19369,BH,counties,net_45,active,office_supplies,2025-03-12 04:47:49.915889
051ff89f-d229-4b8b-b320-f6a7645245c6,personalit,ethernet1913@duck.com,+14781729180,Harlem,North Canton,West Virginia,79918,CM,christoph,net_45,pending_approval,travel,2025-12-29 03:49:57.030782
42b54569-8f13-452e-84dd-f4d3a6bb9e8e,columbus,route1935@outlook.com,+1-989-637-7044,Barcelona,Williamsport,Montana,71782,AR,away,net_45,inactive,software,2025-07-09 16:04:16.746925
de1d03c4-d061-4558-b38d-130a10cd46a2,academic,questionnaire1993@yandex.com,+12073875724,Alpine,Green,Oregon,69346,MA,infant,net_30,active,consulting,2025-08-15 16:23:03.523879
3bca0767-1fe6-4e81-ad16-19b4797631a4,ne,length1963@duck.com,+1-908-013-7580,Stanton,Chicago Heights,North Carolina,41114,ES,effects,net_60,active,office_supplies,2025-06-06 08:49:06.937708
bae9e8d6-d8fc-4a82-b910-ca2f41527259,de,armed1884@example.com,+1-308-039-4595,Fernandez,Alpharetta,West Virginia,32616,NL,programme,net_15,active,other,2025-04-24 16:00:02.900400
70ad8890-de71-466e-adb7-a4183de63530,processing,license1849@live.com,+16145813426,Perego,Westerville,Nevada,50611,GM,inner,due_on_receipt,active,marketing,2025-04-02 15:23:24.964927
09f7ce85-5fe3-4c8d-930c-591b970323a2,posts,fighter1813@example.com,+1-580-694-1748,Hollis,Alamo,Kentucky,34235,MP,translate,net_60,inactive,travel,2025-03-30 01:35:51.958343
02734a6d-2f03-42e9-a39a-58c5b80096ed,say,china1998@live.com,+12398342422,Amatista,Fort Walton Beach,Tennessee,32641,PK,operators,net_30,inactive,travel,2025-04-11 07:26:58.755276
6bdadebd-0f5d-4fce-a039-8a3ebcc4c38a,persons,directions1843@duck.com,+16264720359,Sumner,Sebastian,Wyoming,31926,DK,twiki,net_45,pending_approval,consulting,2025-05-27 02:36:23.125200
0925dea7-91f1-46da-bf46-b4006d869649,homepage,worth2043@example.com,+1-573-380-5559,Dakota,Milpitas,Georgia,49379,SD,markets,net_15,active,office_supplies,2025-03-08 16:02:25.072274
dabbab0a-c25b-40a6-b418-4fc0d20d54c9,partner,conversation1888@yandex.com,+1-531-814-9496,Vesta,Walker,Texas,87657,MA,times,net_30,pending_approval,software,2025-05-25 09:20:05.579958
7a6e8094-62cd-4c05-8f02-f23d1a902181,skip,measured1844@live.com,+15853324876,Roscoe,Newport News,Virginia,39189,CX,auto,net_15,inactive,marketing,2025-01-12 06:18:36.822615
f3bfa2cf-ff97-4ed2-835b-167edefc8997,clock,readily2012@example.org,+1-601-559-1177,Vermont,Coeur d'Alene,Hawaii,35125,BI,environme,net_60,inactive,consulting,2025-12-20 07:29:23.620432
26798675-b23c-44c0-a931-6b2028c7e0e8,remains,necessary1935@example.org,+15625414664,Temple,Maricopa,Arkansas,45404,ST,minor,net_60,inactive,travel,2025-04-24 17:48:50.257034
a3b55a01-0590-49b9-9892-1e6be6ef5e7a,edition,model1825@protonmail.com,+1-912-808-3246,Lois,South Gate,Alaska,38750,GT,calculate,net_30,pending_approval,software,2025-01-30 13:01:14.567851
e0620f17-fd15-42fe-9ec9-360e49b3acd9,pour,granny1953@gmail.com,+17302461287,Brant,North Richland Hills,Arkansas,90904,SH,prints,net_45,inactive,software,2025-11-27 22:56:00.997185
930a1204-ee53-4fd5-9f3f-c496b36fa3d3,upper,payday2063@example.org,+1-704-351-8801,Dartmouth,Temple City,Tennessee,96493,TT,last,net_45,pending_approval,other,2025-01-25 21:24:54.773935
be7eeaf0-c4a8-4fbc-8f74-5dbe19eef978,knowledge,blake1816@yahoo.com,+1-203-972-8561,Northgate,Kinston,Colorado,66563,CM,barcelona,due_on_receipt,inactive,consulting,2025-02-07 16:15:26.515929
a6c2169d-cff8-40c5-bbfd-0e9b175b2632,ann,hewlett2050@duck.com,+1-502-945-3828,Vernon,Lake Oswego,North Dakota,19879,KP,hub,net_45,active,office_supplies,2025-03-23 08:05:02.966026
39fc3b5f-0015-4e92-9e9a-aedf50277e07,execution,kirk1997@gmail.com,+1-863-872-2226,Wallace,Long Branch,Ohio,32411,TW,determine,net_60,pending_approval,software,2025-09-14 22:57:23.480728
125e63e2-f209-4d8c-8e43-0d8323c31304,below,among2042@example.org,+1-562-602-8396,Columbus,Arvada,Texas,47802,BL,vol,net_15,active,travel,2025-10-04 16:08:40.859793
0ac88f1f-e87f-4634-a95f-73d56d8c2ad2,sons,pepper2035@protonmail.com,+1-364-468-3156,Baldwin,Marina,Rhode Island,68204,MF,moderator,net_30,active,travel,2025-02-19 18:03:27.694622
e4cd0608-2300-463e-880d-24b861378d40,vast,watershed1952@outlook.com,+17020968278,Goldberg,Sun Prairie,Wyoming,05287,GL,zoom,net_45,inactive,software,2025-04-10 08:54:20.971025
7356f649-1ede-44b8-adf7-489a5ca2ef5f,plain,expects2064@live.com,+1-856-886-6676,Magellan,Euclid,Maryland,89542,ML,documenta,net_15,inactive,other,2025-12-27 23:20:20.474751
eaa03c05-b7f6-49da-9421-b39ac62bcb81,anne,indication2007@live.com,+1-360-598-3766,Euclid,Providence,Utah,44996,SM,res,net_60,active,office_supplies,2025-04-03 06:08:49.807557
b1748825-cad0-4e04-823f-ea360deb7398,isp,ons1953@example.com,+18151012871,Tucker,Hazel Park,Vermont,41374,TL,pattern,net_60,pending_approval,other,2025-03-04 05:28:29.329287
73cf30b0-64fe-4b0f-81f6-68788baa0920,touch,checklist1981@outlook.com,+1-316-483-5410,Grove,Greenfield,Virginia,14044,MC,compariso,net_30,pending_approval,consulting,2025-02-18 11:49:13.473869
588b84ec-720a-4be9-9837-d7216f0b52bd,mph,similar2056@gmail.com,+17735481939,Daniel Burnham,Laguna Beach,Kansas,23043,ME,outside,net_45,active,marketing,2025-08-09 03:05:10.846826
746f7863-1c01-43de-bdd3-592f6c7f7a05,kingdom,deposit1892@example.com,+13103930427,Flournoy,Baton Rouge,Louisiana,36008,MT,bell,net_15,inactive,software,2025-12-23 19:02:13.876530
40ed5d10-bb5a-44aa-a824-6f242631f408,filing,starter1866@yandex.com,+17544930130,Wilde,Easton,New Mexico,29392,CR,fact,net_60,active,travel,2025-03-03 22:15:22.415492
3cd0d0d7-9bbf-4894-8008-bb4c94d0c4ba,pink,training1809@outlook.com,+1-916-283-1530,Converse,Steubenville,Wisconsin,42629,MK,stones,due_on_receipt,inactive,consulting,2025-11-10 08:52:11.032591
ea39268b-2bfd-46aa-91cb-7ca1a81aa186,extended,light2033@duck.com,+15575461947,Main,Torrington,Maine,35325,LK,presence,net_60,pending_approval,other,2025-08-18 23:35:15.099326
36fdbeff-1efb-4562-ba25-3ad37c23ad20,edited,productivity1916@yandex.com,+1-864-205-1773,Santa Monica,Buckeye,Washington,48934,MN,username,net_60,inactive,software,2025-02-26 04:07:00.064664
583f8103-34c1-4b4c-916e-10717d356e3d,shirt,trends1824@live.com,+1-606-014-1272,Grant,St. Petersburg,Georgia,05572,CV,may,net_60,active,travel,2025-03-07 12:23:43.660914
573848c2-5917-4e37-8466-b328c8f7657d,ins,lists1851@duck.com,+1-570-674-8562,Marne,Ellensburg,Missouri,52593,SG,ethics,net_30,pending_approval,marketing,2025-10-19 08:58:52.078629
fd08f1a5-5091-4f16-8097-212810bc8a5d,exist,subaru1902@gmail.com,+14059341596,Southard,South Gate,Tennessee,74731,MG,waves,net_45,active,marketing,2025-02-07 20:28:51.135047
eb5882c1-7064-4c02-bbde-071c26c48177,had,mit1801@example.com,+1-276-986-1057,South Van Ness,De Land,Ohio,99580,SZ,lie,net_15,active,marketing,2025-06-04 01:29:03.176149
96ae7bea-4060-41d4-84d6-325abddeb683,worked,impose2033@gmail.com,+1-627-401-0283,Bengal,Temecula,Alabama,48270,LS,performed,due_on_receipt,inactive,consulting,2025-12-13 15:01:24.716400
384a0894-c690-4826-8d93-ff4411e64cbb,marc,civic1804@gmail.com,+1-580-389-2733,Saint Louis,Killeen,Arkansas,66644,AE,hearts,net_15,inactive,travel,2025-03-12 06:58:11.288339
0f8267ce-9496-4c8e-b50d-f4d664badc3a,conclusion,prior2033@gmail.com,+14646448117,Van Buren,Oak Ridge,Nebraska,05290,SY,forced,net_45,active,travel,2025-08-29 04:02:39.649253
b804bdd7-65e8-4dfb-a0de-fe6b60b0deda,rescue,come2047@yandex.com,+1-434-676-8878,Red Rock,Wasco,Idaho,10115,SY,opinions,net_30,active,consulting,2025-11-10 15:26:56.577438
bae9e0d1-0ed4-421d-af52-d9605ef6fdd6,respect,staff2010@example.com,+1-857-060-8577,Molimo,Freeport,Montana,09426,GE,converter,net_15,pending_approval,consulting,2025-01-03 08:24:08.439599
85e67b72-a51c-48e6-b489-236b91614461,matters,msgstr2067@yahoo.com,+18176236385,Campus,Rockville Centre,Tennessee,70350,AF,tripadvis,net_30,inactive,travel,2025-11-29 16:15:40.841134
fa11ab23-5072-4507-a196-25292f966022,ii,affects2058@duck.com,+17818042902,Encinal,Boulder,New York,86399,US,principle,net_30,active,software,2025-07-26 22:22:30.570968
0cb0340b-6bbc-4fc0-b62e-c74c36d89425,buttons,productions1840@protonmail.com,+18648484146,Upland,Avondale,Iowa,28840,BE,wed,net_30,inactive,office_supplies,2025-06-30 18:32:20.407247
24a20803-f232-4f21-a959-00c0b93eea98,november,productivity1818@gmail.com,+1-937-796-8564,Kensington,Northampton,Oregon,61802,CA,delete,net_30,pending_approval,office_supplies,2025-03-01 10:38:14.030726
495589ec-fea5-465c-9421-d978e0e07070,circuit,ours1914@outlook.com,+18285646717,Park,Bloomington,Maryland,12838,GP,md,net_15,active,other,2025-01-26 15:33:22.804092
84520fd1-29f5-4973-ad20-b4e31e3bc1de,measure,access1981@yahoo.com,+14015701177,Old Mason,Superior,West Virginia,19759,AW,beta,net_60,inactive,consulting,2025-03-04 07:42:15.279473
ae36699c-5501-428f-bee5-d7f04a23a6a5,writes,imagine1896@gmail.com,+16142813706,Cherry,Malden,Iowa,83793,SJ,tonight,due_on_receipt,inactive,other,2025-04-19 12:22:59.879988
ca627b9a-3c03-44b4-92e8-aeb2f444b223,interactiv,salmon2058@gmail.com,+16030754597,Margaret,Ardmore,South Dakota,29439,JO,buffer,due_on_receipt,pending_approval,other,2025-03-08 18:20:51.773959
a2ee3ccb-e227-48a2-a476-a43c7470dc5e,socket,employers1853@yandex.com,+12096384662,Fenton,San Jose,Pennsylvania,60677,BG,lane,due_on_receipt,inactive,other,2025-10-01 22:44:22.993587
a22fa450-ffbf-4886-ad4d-e3518702b3b5,publishing,nav2031@protonmail.com,+1-832-477-2787,Jennifer,Columbia,Missouri,76731,AE,legal,net_45,active,marketing,2025-10-31 06:53:51.924452
1d312b2c-1271-4518-b78a-e7ac7912e923,dos,galleries1907@example.org,+14109179156,Lois,Marana,Mississippi,71045,LU,something,net_15,inactive,marketing,2025-09-10 05:31:02.094641
5f5bcb19-2930-4fe6-bdaf-36e3e5a90333,wiki,numeric2045@gmail.com,+12672885016,Phelan,Burnsville,Alaska,05578,AG,departure,net_45,inactive,consulting,2025-04-20 07:01:33.501207
5b27bc27-3e23-400d-b7a5-2989107a0fa5,meal,intended1946@yahoo.com,+1-949-862-7081,Lancaster,Lincoln,Missouri,77592,LY,genre,net_15,inactive,consulting,2025-06-30 19:12:51.136828
520631dc-8342-4b80-8ef5-0d70ee6e8088,trained,glory1999@example.org,+16157726939,Emerald Cove,Sand Springs,Missouri,12211,FM,lee,net_15,inactive,marketing,2025-12-06 10:03:01.154887
34a04efd-4d67-4565-9e91-86742bcf95c3,swiss,vice1806@outlook.com,+1-646-678-8976,Prospect,Greenacres,New Mexico,73974,NA,studied,net_60,active,software,2025-02-28 16:55:23.076054
01931e8c-4b02-4c7b-a1bf-a72c868e8690,drawn,fax1950@example.org,+1-502-909-7102,France,McAllen,Connecticut,10383,TO,scheme,net_45,inactive,software,2025-12-31 21:25:37.105939
a516b673-aa30-4d7a-ae78-e9761da6b841,help,css2099@live.com,+1-957-371-1309,Market,Manhattan Beach,Michigan,48653,MX,tx,net_15,pending_approval,consulting,2025-05-11 04:10:46.994777
a1de5adc-b856-4217-92d6-9168daa94eaf,lebanon,statistical2081@live.com,+1-464-732-1054,Gabilan,Milwaukie,Massachusetts,13376,MQ,significa,due_on_receipt,inactive,marketing,2025-11-16 20:20:11.741535
